[Satellite]
VERSION=1.1
NAME=MOLNIYA 3-8
NICKNAME=MOLNIYA 3-8
TLE1=1 10455U 77105A   18018.07487444 -.00000777  00000-0 -25320-2 0  9998
TLE2=2 10455  62.1072 231.9652 7226326 270.2213  15.0904  2.00473978294811
